[{"OBJECT_NAME":"STARLINK-30271","OBJECT_ID":"2023-124G","EPOCH":"2026-03-09T15:32:23.365824","MEAN_MOTION":15.30174088,"ECCENTRICITY":0.0001531,"INCLINATION":53.1609,"RA_OF_ASC_NODE":207.2469,"ARG_OF_PERICENTER":98.7407,"MEAN_ANOMALY":261.3767,"EPHEMERIS_TYPE":0,"CLASSIFICATION_TYPE":"U","NORAD_CAT_ID":57669,"ELEMENT_SET_NO":999,"REV_AT_EPOCH":14355,"BSTAR":0.0001297,"MEAN_MOTION_DOT":3.481e-5,"MEAN_MOTION_DDOT":0},{"OBJECT_NAME":"OBJECT C","OBJECT_ID":"2024-092C","EPOCH":"2026-03-09T23:10:26.961312","MEAN_MOTION":15.27308901,"ECCENTRICITY":0.00097974,"INCLINATION":97.6475,"RA_OF_ASC_NODE":197.1606,"ARG_OF_PERICENTER":169.1353,"MEAN_ANOMALY":191.0098,"EPHEMERIS_TYPE":0,"CLASSIFICATION_TYPE":"U","NORAD_CAT_ID":59775,"ELEMENT_SET_NO":999,"REV_AT_EPOCH":10042,"BSTAR":0.00057925748,"MEAN_MOTION_DOT":0.00015454,"MEAN_MOTION_DDOT":0}]
